EUTELSAT QUANTUM        
1 49056U 21069B   25279.14723522  .00000128  00000+0  00000+0 0  9992
2 49056   0.0205 288.0274 0002593 294.5974 253.1585  1.00271135 15389
EUTELSAT KONNECT VHTS   
1 53765U 22110A   25279.06693634  .00000019  00000+0  00000+0 0  9992
2 53765   0.0561 101.2447 0002710  76.4721 224.0571  1.00268848  4277
EUTELSAT HOTBIRD 13F    
1 54048U 22134A   25279.06901637  .00000089  00000+0  00000+0 0  9995
2 54048   0.0594 282.4210 0001922  80.2984  50.1305  1.00271647 10828
EUTELSAT HOTBIRD 13G    
1 54225U 22146A   25279.06901637  .00000089  00000+0  00000+0 0  9995
2 54225   0.0508 235.4622 0002127 300.0853 237.3047  1.00271550  4919
EUTELSAT 10B            
1 54259U 22157A   25279.06840970  .00000070  00000+0  00000+0 0  9996
2 54259   0.0583  98.4290 0001852  28.7802 282.4345  1.00269753 10460
EUTELSAT 36D            
1 59346U 24059A   25279.14489522  .00000158  00000+0  00000+0 0  9999
2 59346   0.0161 224.5018 0000166 246.4783 352.1039  1.00269041  5591
